{
 "cells": [
  {
   "cell_type": "code",
   "execution_count": 2,
   "metadata": {},
   "outputs": [],
   "source": [
    "import numpy as np\n",
    "import pandas as pd"
   ]
  },
  {
   "cell_type": "code",
   "execution_count": 4,
   "metadata": {},
   "outputs": [],
   "source": [
    "data = pd.read_csv(\"./thedata.csv\")"
   ]
  },
  {
   "cell_type": "code",
   "execution_count": 5,
   "metadata": {},
   "outputs": [
    {
     "data": {
      "text/html": [
       "<div>\n",
       "<style scoped>\n",
       "    .dataframe tbody tr th:only-of-type {\n",
       "        vertical-align: middle;\n",
       "    }\n",
       "\n",
       "    .dataframe tbody tr th {\n",
       "        vertical-align: top;\n",
       "    }\n",
       "\n",
       "    .dataframe thead th {\n",
       "        text-align: right;\n",
       "    }\n",
       "</style>\n",
       "<table border=\"1\" class=\"dataframe\">\n",
       "  <thead>\n",
       "    <tr style=\"text-align: right;\">\n",
       "      <th></th>\n",
       "      <th>NORAD_CAT_ID</th>\n",
       "      <th>EPOCH</th>\n",
       "      <th>MEAN_MOTION</th>\n",
       "      <th>ECCENTRICITY</th>\n",
       "      <th>INCLINATION</th>\n",
       "      <th>RA_OF_ASC_NODE</th>\n",
       "      <th>ARG_OF_PERICENTER</th>\n",
       "      <th>MEAN_ANOMALY</th>\n",
       "      <th>SEMIMAJOR_AXIS</th>\n",
       "      <th>PERIOD</th>\n",
       "      <th>APOGEE</th>\n",
       "      <th>PERIGEE</th>\n",
       "      <th>RealName</th>\n",
       "    </tr>\n",
       "  </thead>\n",
       "  <tbody>\n",
       "    <tr>\n",
       "      <th>0</th>\n",
       "      <td>5</td>\n",
       "      <td>2019-11-08 8:39:00</td>\n",
       "      <td>5.726962</td>\n",
       "      <td>0.487162</td>\n",
       "      <td>51.6845</td>\n",
       "      <td>71.8289</td>\n",
       "      <td>187.1912</td>\n",
       "      <td>162.0228</td>\n",
       "      <td>13196.304</td>\n",
       "      <td>251.442</td>\n",
       "      <td>13246.910</td>\n",
       "      <td>389.428</td>\n",
       "      <td>34248</td>\n",
       "    </tr>\n",
       "    <tr>\n",
       "      <th>1</th>\n",
       "      <td>5</td>\n",
       "      <td>2019-11-12 13:09:00</td>\n",
       "      <td>5.727188</td>\n",
       "      <td>0.487112</td>\n",
       "      <td>51.6861</td>\n",
       "      <td>68.3338</td>\n",
       "      <td>189.7895</td>\n",
       "      <td>155.5708</td>\n",
       "      <td>13195.956</td>\n",
       "      <td>251.432</td>\n",
       "      <td>13245.727</td>\n",
       "      <td>389.915</td>\n",
       "      <td>34248</td>\n",
       "    </tr>\n",
       "    <tr>\n",
       "      <th>2</th>\n",
       "      <td>5</td>\n",
       "      <td>2019-11-14 11:13:00</td>\n",
       "      <td>5.727285</td>\n",
       "      <td>0.487099</td>\n",
       "      <td>51.6867</td>\n",
       "      <td>66.7319</td>\n",
       "      <td>190.9800</td>\n",
       "      <td>152.6477</td>\n",
       "      <td>13195.808</td>\n",
       "      <td>251.428</td>\n",
       "      <td>13245.335</td>\n",
       "      <td>390.010</td>\n",
       "      <td>34248</td>\n",
       "    </tr>\n",
       "    <tr>\n",
       "      <th>3</th>\n",
       "      <td>6</td>\n",
       "      <td>2019-11-12 8:36:00</td>\n",
       "      <td>13.973694</td>\n",
       "      <td>0.001726</td>\n",
       "      <td>82.5330</td>\n",
       "      <td>340.1877</td>\n",
       "      <td>209.5157</td>\n",
       "      <td>150.5038</td>\n",
       "      <td>7281.055</td>\n",
       "      <td>103.050</td>\n",
       "      <td>915.484</td>\n",
       "      <td>890.356</td>\n",
       "      <td>31401</td>\n",
       "    </tr>\n",
       "    <tr>\n",
       "      <th>4</th>\n",
       "      <td>6</td>\n",
       "      <td>2019-11-13 8:39:00</td>\n",
       "      <td>13.973714</td>\n",
       "      <td>0.001728</td>\n",
       "      <td>82.5330</td>\n",
       "      <td>339.3720</td>\n",
       "      <td>206.8520</td>\n",
       "      <td>153.1755</td>\n",
       "      <td>7281.048</td>\n",
       "      <td>103.050</td>\n",
       "      <td>915.493</td>\n",
       "      <td>890.334</td>\n",
       "      <td>31401</td>\n",
       "    </tr>\n",
       "    <tr>\n",
       "      <th>5</th>\n",
       "      <td>20</td>\n",
       "      <td>2019-11-07 22:58:00</td>\n",
       "      <td>12.623774</td>\n",
       "      <td>0.000764</td>\n",
       "      <td>82.5852</td>\n",
       "      <td>310.1381</td>\n",
       "      <td>44.2947</td>\n",
       "      <td>13.7448</td>\n",
       "      <td>7791.283</td>\n",
       "      <td>114.070</td>\n",
       "      <td>1419.102</td>\n",
       "      <td>1407.194</td>\n",
       "      <td>21733</td>\n",
       "    </tr>\n",
       "    <tr>\n",
       "      <th>6</th>\n",
       "      <td>20</td>\n",
       "      <td>2019-11-08 12:36:00</td>\n",
       "      <td>12.623774</td>\n",
       "      <td>0.000761</td>\n",
       "      <td>82.5848</td>\n",
       "      <td>309.7762</td>\n",
       "      <td>43.0378</td>\n",
       "      <td>72.8341</td>\n",
       "      <td>7791.284</td>\n",
       "      <td>114.070</td>\n",
       "      <td>1419.079</td>\n",
       "      <td>1407.219</td>\n",
       "      <td>21733</td>\n",
       "    </tr>\n",
       "    <tr>\n",
       "      <th>7</th>\n",
       "      <td>20</td>\n",
       "      <td>2019-11-09 11:23:00</td>\n",
       "      <td>12.623773</td>\n",
       "      <td>0.000759</td>\n",
       "      <td>82.5848</td>\n",
       "      <td>309.1705</td>\n",
       "      <td>41.0574</td>\n",
       "      <td>68.8748</td>\n",
       "      <td>7791.284</td>\n",
       "      <td>114.070</td>\n",
       "      <td>1419.065</td>\n",
       "      <td>1407.232</td>\n",
       "      <td>21733</td>\n",
       "    </tr>\n",
       "    <tr>\n",
       "      <th>8</th>\n",
       "      <td>20</td>\n",
       "      <td>2019-11-09 22:32:00</td>\n",
       "      <td>12.623773</td>\n",
       "      <td>0.000758</td>\n",
       "      <td>82.5848</td>\n",
       "      <td>308.8742</td>\n",
       "      <td>40.1195</td>\n",
       "      <td>20.4998</td>\n",
       "      <td>7791.284</td>\n",
       "      <td>114.070</td>\n",
       "      <td>1419.051</td>\n",
       "      <td>1407.246</td>\n",
       "      <td>21733</td>\n",
       "    </tr>\n",
       "    <tr>\n",
       "      <th>9</th>\n",
       "      <td>20</td>\n",
       "      <td>2019-11-10 12:25:00</td>\n",
       "      <td>12.623773</td>\n",
       "      <td>0.000756</td>\n",
       "      <td>82.5848</td>\n",
       "      <td>308.5055</td>\n",
       "      <td>38.9106</td>\n",
       "      <td>127.5927</td>\n",
       "      <td>7791.284</td>\n",
       "      <td>114.070</td>\n",
       "      <td>1419.036</td>\n",
       "      <td>1407.262</td>\n",
       "      <td>21733</td>\n",
       "    </tr>\n",
       "  </tbody>\n",
       "</table>\n",
       "</div>"
      ],
      "text/plain": [
       "   NORAD_CAT_ID                EPOCH  MEAN_MOTION  ECCENTRICITY  INCLINATION  \\\n",
       "0             5   2019-11-08 8:39:00     5.726962      0.487162      51.6845   \n",
       "1             5  2019-11-12 13:09:00     5.727188      0.487112      51.6861   \n",
       "2             5  2019-11-14 11:13:00     5.727285      0.487099      51.6867   \n",
       "3             6   2019-11-12 8:36:00    13.973694      0.001726      82.5330   \n",
       "4             6   2019-11-13 8:39:00    13.973714      0.001728      82.5330   \n",
       "5            20  2019-11-07 22:58:00    12.623774      0.000764      82.5852   \n",
       "6            20  2019-11-08 12:36:00    12.623774      0.000761      82.5848   \n",
       "7            20  2019-11-09 11:23:00    12.623773      0.000759      82.5848   \n",
       "8            20  2019-11-09 22:32:00    12.623773      0.000758      82.5848   \n",
       "9            20  2019-11-10 12:25:00    12.623773      0.000756      82.5848   \n",
       "\n",
       "   RA_OF_ASC_NODE  ARG_OF_PERICENTER  MEAN_ANOMALY  SEMIMAJOR_AXIS   PERIOD  \\\n",
       "0         71.8289           187.1912      162.0228       13196.304  251.442   \n",
       "1         68.3338           189.7895      155.5708       13195.956  251.432   \n",
       "2         66.7319           190.9800      152.6477       13195.808  251.428   \n",
       "3        340.1877           209.5157      150.5038        7281.055  103.050   \n",
       "4        339.3720           206.8520      153.1755        7281.048  103.050   \n",
       "5        310.1381            44.2947       13.7448        7791.283  114.070   \n",
       "6        309.7762            43.0378       72.8341        7791.284  114.070   \n",
       "7        309.1705            41.0574       68.8748        7791.284  114.070   \n",
       "8        308.8742            40.1195       20.4998        7791.284  114.070   \n",
       "9        308.5055            38.9106      127.5927        7791.284  114.070   \n",
       "\n",
       "      APOGEE   PERIGEE  RealName  \n",
       "0  13246.910   389.428     34248  \n",
       "1  13245.727   389.915     34248  \n",
       "2  13245.335   390.010     34248  \n",
       "3    915.484   890.356     31401  \n",
       "4    915.493   890.334     31401  \n",
       "5   1419.102  1407.194     21733  \n",
       "6   1419.079  1407.219     21733  \n",
       "7   1419.065  1407.232     21733  \n",
       "8   1419.051  1407.246     21733  \n",
       "9   1419.036  1407.262     21733  "
      ]
     },
     "execution_count": 5,
     "metadata": {},
     "output_type": "execute_result"
    }
   ],
   "source": [
    "data.head(10)"
   ]
  },
  {
   "cell_type": "markdown",
   "metadata": {},
   "source": [
    "## Building Recurrent Neural Network "
   ]
  }
 ],
 "metadata": {
  "kernelspec": {
   "display_name": "Python 3",
   "language": "python",
   "name": "python3"
  },
  "language_info": {
   "codemirror_mode": {
    "name": "ipython",
    "version": 3
   },
   "file_extension": ".py",
   "mimetype": "text/x-python",
   "name": "python",
   "nbconvert_exporter": "python",
   "pygments_lexer": "ipython3",
   "version": "3.7.3"
  }
 },
 "nbformat": 4,
 "nbformat_minor": 2
}
